CTC2_L_00228016-03
1 24816U 26168HI  26070.40844907  .00000000  00000+0  00000-0 0  9994
2 24816  65.0000 180.0000 0000000   0.0000   0.0000 14.24551792    14
CTC2_L_00228016-04
1 24817U 26325WZ  26070.40844907  .00000000  00000+0  00000-0 0  9990
2 24817  65.0000 180.0000 0000000   0.0000  90.0000 14.24551792    14
CTC2_L_00228017-01
1 24818U 25396DH  26070.40844907  .00000000  00000+0  00000-0 0  9998
2 24818  65.0000 192.0000 0000000   0.0000 192.0000 14.24551792    11
CTC2_L_00228017-02
1 24819U 26206YV  26070.40844907  .00000000  00000+0  00000-0 0  9990
2 24819  65.0000 192.0000 0000000   0.0000 282.0000 14.24551792    12
CTC2_L_00228017-03
1 24820U 24420L   26070.40844907  .00000000  00000+0  00000-0 0  9998
2 24820  65.0000 192.0000 0000000   0.0000  12.0000 14.24551792    15
CTC2_L_00228017-04
1 24821U 26192ID  26070.40844907  .00000000  00000+0  00000-0 0  9997
2 24821  65.0000 192.0000 0000000   0.0000 102.0000 14.24551792    16
CTC2_L_00228018-01
1 24822U 25776AU  26070.40844907  .00000000  00000+0  00000-0 0  9995
2 24822  65.0000 204.0000 0000000   0.0000 204.0000 14.24551792    14
CTC2_L_00228018-02
1 24823U 23068RI  26070.40844907  .00000000  00000+0  00000-0 0  9998
2 24823  65.0000 204.0000 0000000   0.0000 294.0000 14.24551792    14
CTC2_L_00228018-03
1 24824U 23849MD  26070.40844907  .00000000  00000+0  00000-0 0  9996
2 24824  65.0000 204.0000 0000000   0.0000  24.0000 14.24551792    16
CTC2_L_00228018-04
1 24825U 24721RG  26070.40844907  .00000000  00000+0  00000-0 0  9997
2 24825  65.0000 204.0000 0000000   0.0000 114.0000 14.24551792    17
CTC2_L_00228019-01
1 24826U 22902PO  26070.40844907  .00000000  00000+0  00000-0 0  9997
2 24826  65.0000 216.0000 0000000   0.0000 216.0000 14.24551792    14
CTC2_L_00228019-02
1 24827U 22343LK  26070.40844907  .00000000  00000+0  00000-0 0  9997
2 24827  65.0000 216.0000 0000000   0.0000 306.0000 14.24551792    15
CTC2_L_00228019-03
1 24828U 26805XV  26070.40844907  .00000000  00000+0  00000-0 0  9995
2 24828  65.0000 216.0000 0000000   0.0000  36.0000 14.24551792    16
CTC2_L_00228019-04
1 24829U 22396OE  26070.40844907  .00000000  00000+0  00000-0 0  9997
2 24829  65.0000 216.0000 0000000   0.0000 126.0000 14.24551792    17
CTC2_L_00228020-01
1 24830U 24615YF  26070.40844907  .00000000  00000+0  00000-0 0  9995
2 24830  65.0000 228.0000 0000000   0.0000 228.0000 14.24551792    15
CTC2_L_00228020-02
1 24831U 23906H   26070.40844907  .00000000  00000+0  00000-0 0  9998
2 24831  65.0000 228.0000 0000000   0.0000 318.0000 14.24551792    16
CTC2_L_00228020-03
1 24832U 23554QW  26070.40844907  .00000000  00000+0  00000-0 0  9998
2 24832  65.0000 228.0000 0000000   0.0000  48.0000 14.24551792    17
CTC2_L_00228020-04
1 24833U 25008EP  26070.40844907  .00000000  00000+0  00000-0 0  9995
2 24833  65.0000 228.0000 0000000   0.0000 138.0000 14.24551792    18
CTC2_L_00228021-01
1 24834U 22862MF  26070.40844907  .00000000  00000+0  00000-0 0  9991
2 24834  65.0000 240.0000 0000000   0.0000 240.0000 14.24551792    17
CTC2_L_00228021-02
1 24835U 25543NZ  26070.40844907  .00000000  00000+0  00000-0 0  9991
2 24835  65.0000 240.0000 0000000   0.0000 330.0000 14.24551792    18
CTC2_L_00228021-03
1 24836U 23415DM  26070.40844907  .00000000  00000+0  00000-0 0  9998
2 24836  65.0000 240.0000 0000000   0.0000  60.0000 14.24551792    19
CTC2_L_00228021-04
1 24837U 24703GX  26070.40844907  .00000000  00000+0  00000-0 0  9990
2 24837  65.0000 240.0000 0000000   0.0000 150.0000 14.24551792    10
CTC2_L_00228022-01
1 24838U 22527MU  26070.40844907  .00000000  00000+0  00000-0 0  9993
2 24838  65.0000 252.0000 0000000   0.0000 252.0000 14.24551792    17
CTC2_L_00228022-02
1 24839U 24155RF  26070.40844907  .00000000  00000+0  00000-0 0  9993
2 24839  65.0000 252.0000 0000000   0.0000 342.0000 14.24551792    18
CTC2_L_00228022-03
1 24840U 25350XL  26070.40844907  .00000000  00000+0  00000-0 0  9993
2 24840  65.0000 252.0000 0000000   0.0000  72.0000 14.24551792    10
CTC2_L_00228022-04
1 24841U 26059KN  26070.40844907  .00000000  00000+0  00000-0 0  9991
2 24841  65.0000 252.0000 0000000   0.0000 162.0000 14.24551792    11
CTC2_L_00228023-01
1 24842U 24959AO  26070.40844907  .00000000  00000+0  00000-0 0  9999
2 24842  65.0000 264.0000 0000000   0.0000 264.0000 14.24551792    18
CTC2_L_00228023-02
1 24843U 25339LF  26070.40844907  .00000000  00000+0  00000-0 0  9993
2 24843  65.0000 264.0000 0000000   0.0000 354.0000 14.24551792    19
CTC2_L_00228023-03
1 24844U 23944ZJ  26070.40844907  .00000000  00000+0  00000-0 0  9994
2 24844  65.0000 264.0000 0000000   0.0000  84.0000 14.24551792    10
CTC2_L_00228023-04
1 24845U 25775YG  26070.40844907  .00000000  00000+0  00000-0 0  9999
2 24845  65.0000 264.0000 0000000   0.0000 174.0000 14.24551792    11
CTC2_L_00228024-01
1 24846U 24468YO  26070.40844907  .00000000  00000+0  00000-0 0  9998
2 24846  65.0000 276.0000 0000000   0.0000 276.0000 14.24551792    18
CTC2_L_00228024-02
1 24847U 24111RT  26070.40844907  .00000000  00000+0  00000-0 0  9994
2 24847  65.0000 276.0000 0000000   0.0000   6.0000 14.24551792    10
CTC2_L_00228024-03
1 24848U 25371KT  26070.40844907  .00000000  00000+0  00000-0 0  9994
2 24848  65.0000 276.0000 0000000   0.0000  96.0000 14.24551792    10
CTC2_L_00228024-04
1 24849U 25109MV  26070.40844907  .00000000  00000+0  00000-0 0  9994
2 24849  65.0000 276.0000 0000000   0.0000 186.0000 14.24551792    11
CTC2_L_00228025-01
1 24850U 24475KP  26070.40844907  .00000000  00000+0  00000-0 0  9991
2 24850  65.0000 288.0000 0000000   0.0000 288.0000 14.24551792    19
CTC2_L_00228025-02
1 24851U 22245YG  26070.40844907  .00000000  00000+0  00000-0 0  9995
2 24851  65.0000 288.0000 0000000   0.0000  18.0000 14.24551792    11
CTC2_L_00228025-03
1 24852U 23742VM  26070.40844907  .00000000  00000+0  00000-0 0  9999
2 24852  65.0000 288.0000 0000000   0.0000 108.0000 14.24551792    12
CTC2_L_00228025-04
1 24853U 23590RH  26070.40844907  .00000000  00000+0  00000-0 0  9991
2 24853  65.0000 288.0000 0000000   0.0000 198.0000 14.24551792    12
CTC2_L_00228026-01
1 24854U 24921AC  26070.40844907  .00000000  00000+0  00000-0 0  9991
2 24854  65.0000 300.0000 0000000   0.0000 300.0000 14.24551792    13
CTC2_L_00228026-02
1 24855U 23569AU  26070.40844907  .00000000  00000+0  00000-0 0  9999
2 24855  65.0000 300.0000 0000000   0.0000  30.0000 14.24551792    14
CTC2_L_00228026-03
1 24856U 23302CT  26070.40844907  .00000000  00000+0  00000-0 0  9995
2 24856  65.0000 300.0000 0000000   0.0000 120.0000 14.24551792    15
CTC2_L_00228026-04
1 24857U 23671YF  26070.40844907  .00000000  00000+0  00000-0 0  9995
2 24857  65.0000 300.0000 0000000   0.0000 210.0000 14.24551792    16
CTC2_L_00228027-01
1 24858U 26067RS  26070.40844907  .00000000  00000+0  00000-0 0  9998
2 24858  65.0000 312.0000 0000000   0.0000 312.0000 14.24551792    13
CTC2_L_00228027-02
1 24859U 23171KM  26070.40844907  .00000000  00000+0  00000-0 0  9992
2 24859  65.0000 312.0000 0000000   0.0000  42.0000 14.24551792    14
CTC2_L_00228027-03
1 24860U 25761EF  26070.40844907  .00000000  00000+0  00000-0 0  9991
2 24860  65.0000 312.0000 0000000   0.0000 132.0000 14.24551792    16
CTC2_L_00228027-04
1 24861U 24302AR  26070.40844907  .00000000  00000+0  00000-0 0  9992
2 24861  65.0000 312.0000 0000000   0.0000 222.0000 14.24551792    17
CTC2_L_00228028-01
1 24862U 25610CY  26070.40844907  .00000000  00000+0  00000-0 0  9996
2 24862  65.0000 324.0000 0000000   0.0000 324.0000 14.24551792    14
CTC2_L_00228028-02
1 24863U 23936JN  26070.40844907  .00000000  00000+0  00000-0 0  9996
2 24863  65.0000 324.0000 0000000   0.0000  54.0000 14.24551792    15
CTC2_L_00228028-03
1 24864U 24390MZ  26070.40844907  .00000000  00000+0  00000-0 0  9992
2 24864  65.0000 324.0000 0000000   0.0000 144.0000 14.24551792    16
CTC2_L_00228028-04
1 24865U 25059MZ  26070.40844907  .00000000  00000+0  00000-0 0  9996
2 24865  65.0000 324.0000 0000000   0.0000 234.0000 14.24551792    17
CTC2_L_00228029-01
1 24866U 23740SE  26070.40844907  .00000000  00000+0  00000-0 0  9992
2 24866  65.0000 336.0000 0000000   0.0000 336.0000 14.24551792    14
CTC2_L_00228029-02
1 24867U 24382WM  26070.40844907  .00000000  00000+0  00000-0 0  9996
2 24867  65.0000 336.0000 0000000   0.0000  66.0000 14.24551792    15
CTC2_L_00228029-03
1 24868U 22907TD  26070.40844907  .00000000  00000+0  00000-0 0  9998
2 24868  65.0000 336.0000 0000000   0.0000 156.0000 14.24551792    16
CTC2_L_00228029-04
1 24869U 24967OE  26070.40844907  .00000000  00000+0  00000-0 0  9997
2 24869  65.0000 336.0000 0000000   0.0000 246.0000 14.24551792    17
CTC2_L_00228030-01
1 24870U 22641ML  26070.40844907  .00000000  00000+0  00000-0 0  9996
2 24870  65.0000 348.0000 0000000   0.0000 348.0000 14.24551792    15
CTC2_L_00228030-02
1 24871U 25779UP  26070.40844907  .00000000  00000+0  00000-0 0  9992
2 24871  65.0000 348.0000 0000000   0.0000  78.0000 14.24551792    16
CTC2_L_00228030-03
1 24872U 24707PG  26070.40844907  .00000000  00000+0  00000-0 0  9993
2 24872  65.0000 348.0000 0000000   0.0000 168.0000 14.24551792    17
CTC2_L_00228030-04
1 24873U 23661US  26070.40844907  .00000000  00000+0  00000-0 0  9992
2 24873  65.0000 348.0000 0000000   0.0000 258.0000 14.24551792    18
